     2              NAVIGATION DATA                         RINEX VERSION / TYPE
CCRINEXN V1.6.0 UX  CDDIS               17-JAN-12 15:33     PGM / RUN BY / DATE 
IGS BROADCAST EPHEMERIS FILE                                COMMENT             
    0.1676D-07 -0.7451D-08 -0.5960D-07  0.1192D-06          ION ALPHA           
    0.1311D+06 -0.1475D+06  0.6554D+05 -0.1311D+06          ION BETA            
   -0.279396772385D-08-0.355271367880D-14   319488     1671 DELTA-UTC: A0,A1,T,W
    15                                                      LEAP SECONDS        
                                                            END OF HEADER       
27 12  1 16  1 59 28.0 0.346709042788D-03 0.386535248253D-11 0.000000000000D+00
    0.590000000000D+02-0.425000000000D+02 0.398838041777D-08-0.163285244860D+01
   -0.185146927834D-05 0.219501900719D-01 0.100787729025D-04 0.515356568718D+04
    0.935680000000D+05-0.398606061935D-06-0.202867196528D+01 0.379979610443D-06
    0.981765560625D+00 0.199718750000D+03-0.114309158894D+01-0.792711591048D-08
   -0.439304013061D-10 0.000000000000D+00 0.167100000000D+04 0.000000000000D+00
    0.200000000000D+01 0.000000000000D+00-0.419095158577D-08 0.590000000000D+02
    0.864000000000D+05 0.400000000000D+01 0.000000000000D+00 0.000000000000D+00
 1 12  1 16  1 59 44.0 0.182012561709D-03 0.127329258248D-10 0.000000000000D+00
    0.100000000000D+02 0.912500000000D+01 0.438982583617D-08 0.192847491688D+01
    0.515952706337D-06 0.585316796787D-03 0.103302299976D-04 0.515366327477D+04
    0.935840000000D+05 0.242143869400D-07 0.114696338450D+01 0.298023223877D-07
    0.959920097531D+00 0.180031250000D+03 0.107893888755D+01-0.793068721805D-08
   -0.112504686123D-09 0.100000000000D+01 0.167100000000D+04 0.000000000000D+00
    0.200000000000D+01 0.000000000000D+00 0.791624188423D-08 0.100000000000D+02
    0.912480000000D+05 0.400000000000D+01 0.000000000000D+00 0.000000000000D+00
 5 12  1 16  1 59 44.0-0.271063763648D-03-0.466116034659D-11 0.000000000000D+00
    0.100000000000D+02 0.943125000000D+02 0.481377194150D-08-0.624025468000D+00
    0.495277345181D-05 0.269677978940D-02 0.711344182491D-05 0.515358783722D+04
    0.935840000000D+05 0.726431608200D-07 0.219920285847D+01-0.242143869400D-07
    0.951863297110D+00 0.233843750000D+03 0.279501877621D+00-0.834427614402D-08
    0.210723063176D-09 0.000000000000D+00 0.167100000000D+04 0.000000000000D+00
    0.200000000000D+01 0.000000000000D+00-0.102445483208D-07 0.100000000000D+02
    0.864000000000D+05 0.400000000000D+01 0.000000000000D+00 0.000000000000D+00
18 12  1 16  1 59 44.0 0.176953151822D-03 0.181898940355D-11 0.000000000000D+00
    0.300000000000D+01 0.868750000000D+02 0.537236663778D-08 0.268129484555D+00
    0.455044209957D-05 0.127496372443D-01 0.738352537155D-05 0.515366448593D+04
    0.935840000000D+05-0.119209289551D-06 0.221238637338D+01 0.149011611938D-06
    0.930616771695D+00 0.223000000000D+03-0.219863081800D+01-0.874750722593D-08
    0.122862260564D-09 0.000000000000D+00 0.167100000000D+04 0.000000000000D+00
    0.200000000000D+01 0.000000000000D+00-0.111758708954D-07 0.300000000000D+01
    0.933900000000D+05 0.400000000000D+01 0.000000000000D+00 0.000000000000D+00
21 12  1 16  1 59 44.0-0.197889748961D-03-0.261479726760D-11 0.000000000000D+00
    0.300000000000D+01-0.746875000000D+01 0.510199823299D-08 0.133307271969D+01
   -0.189989805222D-06 0.184136229800D-01 0.116750597954D-04 0.515366996002D+04
    0.935840000000D+05-0.333413481712D-06 0.116000540743D+01 0.596046447754D-07
    0.931221123635D+00 0.144375000000D+03-0.230220902411D+01-0.847785313661D-08
   -0.357514891930D-09 0.000000000000D+00 0.167100000000D+04 0.000000000000D+00
    0.200000000000D+01 0.000000000000D+00-0.111758708954D-07 0.300000000000D+01
    0.903900000000D+05 0.400000000000D+01 0.000000000000D+00 0.000000000000D+00
30 12  1 16  1 59 44.0-0.106533989310D-04-0.117097442853D-10 0.000000000000D+00
    0.480000000000D+02-0.631250000000D+01 0.461519224128D-08-0.137655356792D+01
   -0.184401869774D-06 0.108799679438D-01 0.760331749916D-05 0.515360674477D+04
    0.935840000000D+05-0.856816768646D-07-0.104148705242D+01 0.232830643654D-06
    0.958181495465D+00 0.231656250000D+03 0.155463083186D+01-0.820319883902D-08
    0.235366946835D-09 0.100000000000D+01 0.167100000000D+04 0.000000000000D+00
    0.200000000000D+01 0.000000000000D+00-0.419095158577D-08 0.480000000000D+02
    0.922980000000D+05 0.400000000000D+01 0.000000000000D+00 0.000000000000D+00
 1 12  1 16  2  0  0.0 0.182011630386D-03 0.127329258248D-10 0.000000000000D+00
    0.182000000000D+03 0.912500000000D+01 0.439018286874D-08 0.193079767676D+01
    0.515952706337D-06 0.585317611694D-03 0.103302299976D-04 0.515366327286D+04
    0.936000000000D+05 0.242143869400D-07 0.114696327770D+01 0.298023223877D-07
    0.959920091679D+00 0.180031250000D+03 0.107894991503D+01-0.793068748782D-08
   -0.112504686272D-09 0.100000000000D+01 0.167100000000D+04 0.000000000000D+00
    0.200000000000D+01 0.000000000000D+00 0.791624188423D-08 0.182000000000D+03
    0.864490000000D+05 0.400000000000D+01 0.000000000000D+00 0.000000000000D+00
 2 12  1 16  2  0  0.0 0.374882016331D-03 0.159161572810D-11 0.000000000000D+00
    0.880000000000D+02 0.162187500000D+02 0.472091093060D-08-0.251167371624D+01
    0.754371285439D-06 0.107938264264D-01 0.116340816021D-04 0.515363664818D+04
    0.936000000000D+05-0.726431608200D-07 0.113608441322D+01-0.191852450371D-06
    0.938501135037D+00 0.141906250000D+03-0.288581328731D+01-0.799247577584D-08
   -0.985755346381D-10 0.000000000000D+00 0.167100000000D+04 0.000000000000D+00
    0.200000000000D+01 0.000000000000D+00-0.176951289177D-07 0.880000000000D+02
    0.864000000000D+05 0.400000000000D+01 0.000000000000D+00 0.000000000000D+00
 3 12  1 16  2  0  0.0 0.822597648948D-03 0.500222085975D-11 0.000000000000D+00
    0.550000000000D+02-0.423437500000D+02 0.533022204152D-08-0.237936171001D+01
   -0.214762985706D-05 0.149784904206D-01 0.582449138165D-05 0.515369676590D+04
    0.936000000000D+05 0.199303030968D-06-0.254151880160D-01-0.149011611938D-07
    0.930632511231D+00 0.248343750000D+03 0.116632264026D+01-0.831177437988D-08
    0.682171263922D-10 0.100000000000D+01 0.167100000000D+04 0.000000000000D+00
    0.200000000000D+01 0.000000000000D+00-0.465661287308D-08 0.550000000000D+02
    0.319500000000D+06 0.000000000000D+00 0.000000000000D+00 0.000000000000D+00
 4 12  1 16  2  0  0.0 0.646691769362D-04 0.113686837722D-10 0.000000000000D+00
    0.710000000000D+02 0.117187500000D+02 0.490306137504D-08 0.592480016862D+00
    0.793486833572D-06 0.100100216223D-01 0.108964741230D-04 0.515378033066D+04
    0.936000000000D+05-0.126659870148D-06 0.115315804235D+01 0.113621354103D-06
    0.937558165838D+00 0.158593750000D+03 0.821881726696D+00-0.824248618978D-08
   -0.226438003480D-09 0.000000000000D+00 0.167100000000D+04 0.000000000000D+00
    0.200000000000D+01 0.000000000000D+00-0.651925802231D-08 0.710000000000D+02
    0.864000000000D+05 0.400000000000D+01 0.000000000000D+00 0.000000000000D+00
 6 12  1 16  2  0  0.0 0.246134586632D-04 0.284217094304D-11 0.000000000000D+00
    0.600000000000D+02-0.418437500000D+02 0.527843415368D-08-0.440070632240D+00
   -0.216625630856D-05 0.689111475367D-02 0.640563666821D-05 0.515369640732D+04
    0.936000000000D+05-0.130385160446D-07 0.501120817922D-01-0.150874257088D-06
    0.937596374332D+00 0.246562500000D+03-0.621526714682D+00-0.854142721330D-08
   -0.671456540289D-10 0.000000000000D+00 0.167100000000D+04 0.000000000000D+00
    0.280000000000D+01 0.000000000000D+00-0.512227416039D-08 0.600000000000D+02
    0.864000000000D+05 0.400000000000D+01 0.000000000000D+00 0.000000000000D+00
 7 12  1 16  2  0  0.0 0.502387993038D-04 0.261479726760D-11 0.000000000000D+00
    0.530000000000D+02-0.292500000000D+02 0.420231790055D-08 0.223326532746D+01
   -0.149756669998D-05 0.508020352572D-02 0.901520252228D-05 0.515362664795D+04
    0.936000000000D+05-0.100582838059D-06-0.197542060758D+01 0.104308128357D-06
    0.975442149892D+00 0.215562500000D+03-0.300477812345D+01-0.792390149087D-08
   -0.250010413937D-10 0.000000000000D+00 0.167100000000D+04 0.000000000000D+00
    0.200000000000D+01 0.000000000000D+00-0.111758708954D-07 0.530000000000D+02
    0.864000000000D+05 0.400000000000D+01 0.000000000000D+00 0.000000000000D+00
 8 12  1 16  2  0  0.0 0.395346432924D-06 0.113686837722D-12 0.000000000000D+00
    0.190000000000D+02-0.326875000000D+02 0.369586823346D-08 0.166652093619D+01
   -0.151991844177D-05 0.120878717862D-01 0.958889722824D-05 0.515371972275D+04
    0.936000000000D+05 0.558793544769D-08-0.189491633540D+01 0.208616256714D-06
    0.997403081110D+00 0.216250000000D+03-0.298344489673D+01-0.772996484121D-08
   -0.131076888450D-09 0.000000000000D+00 0.167100000000D+04 0.000000000000D+00
    0.200000000000D+01 0.000000000000D+00-0.419095158577D-08 0.190000000000D+02
    0.864000000000D+05 0.400000000000D+01 0.000000000000D+00 0.000000000000D+00
 9 12  1 16  2  0  0.0 0.132088549435D-03 0.250111042988D-11 0.000000000000D+00
    0.120000000000D+02-0.545000000000D+02 0.391409160906D-08 0.158217524740D+01
   -0.306591391563D-05 0.171738202916D-01 0.925920903683D-05 0.515364602280D+04
    0.936000000000D+05 0.596046447754D-07-0.200213845246D+01-0.441446900368D-06
    0.984253409351D+00 0.212500000000D+03 0.160386841780D+01-0.781461122421D-08
   -0.296440919383D-10 0.000000000000D+00 0.167100000000D+04 0.000000000000D+00
    0.200000000000D+01 0.000000000000D+00-0.558793544769D-08 0.120000000000D+02
    0.864000000000D+05 0.400000000000D+01 0.000000000000D+00 0.000000000000D+00
